#aV2013  4 15  0  0  0.00000000     288 DD+AD WGS84 FIT  NGA
## 1736  86400.00000000   300.00000000 56397 0.0000000000000
+   30     1  2  3  4  5  6  7  8  9 10 11 12 13 14 15 16 17
+         18 19 20 21 22 23 24 25 26 28 29 31 32  0  0  0  0
+          0  0  0  0  0  0  0  0  0  0  0  0  0  0  0  0  0
+          0  0  0  0  0  0  0  0  0  0  0  0  0  0  0  0  0
+          0  0  0  0  0  0  0  0  0  0  0  0  0  0  0  0  0
++         2  2  2  2  2  2  2  2  2  2  2  2  2  2  2  2  2
++         2  2  2  2  2  2  2  2  2  2  2  2  2  2  2  0  0
++         0  0  0  0  0  0  0  0  0  0  0  0  0  0  0  0  0
++         0  0  0  0  0  0  0  0  0  0  0  0  0  0  0  0  0
++         0  0  0  0  0  0  0  0  0  0  0  0  0  0  0  0  0
%c cc cc ccc ccc cccc cccc cccc cccc ccccc ccccc ccccc ccccc
%c cc cc ccc ccc cccc cccc cccc cccc ccccc ccccc ccccc ccccc
%f  0.0000000  0.000000000  0.00000000000  0.000000000000000
%f  0.0000000  0.000000000  0.00000000000  0.000000000000000
%i    0    0    0    0      0      0      0      0         0
%i    0    0    0    0      0      0      0      0         0
/*      NGA, ST. LOUIS,MO.                                  
/*   EPHEMERIS COMPUTED FROM  1 DAYS OF DATA
/*   EPOCHA SMOOTHER  
/* CCCCCCCCCCCCCCCCCCCCCCCCCCCCCCCCCCCCCCCCCCCCCCCCCCCCCCCCC
*  2013  4 15  3 20  0.00000000                                                 
P  1  13628.758503 -10908.091449  19978.578337     16.343462                    
V  1   2002.675449  25377.636224  12557.820842      0.035277                    
P  2 -13559.337919 -14844.867830 -17401.027232    427.343934                    
V  2    599.333944 -22434.280082  17948.117851      0.018726                    
P  3  25103.877084   9020.513177     95.426078    194.207448                    
V  3   -511.537773   3521.001489 -31003.356421      0.048789                    
P  4  -7795.663378 -23530.404979  -9424.299528    190.712128                    
V  4   2909.197426 -11821.399764  28219.270874      0.107808                    
P  5 -19810.639588  -2468.592630 -17614.051052   -391.644080                    
V  5  17954.713364 -13328.329106 -18217.062787     -0.012752                    
P  6  22704.458888  13546.864341  -4020.109455    273.253749                    
V  6  -5996.799787    682.714194 -30514.881012     -0.157110                    
P  7   6493.059541 -23527.216924 -10067.973103    202.811989                    
V  7   2502.530449  12886.928019 -28667.599113      0.042584                    
P  8   1776.894231 -26170.746774    352.759147      5.631628                    
V  8   2137.449116   -162.271166 -32964.130786      0.001878                    
P  9 -10937.235353 -18135.882667  15423.176886    234.155626                    
V  9    916.965484 -20634.598863 -22869.945526      0.026929                    
P 10  -5004.614601 -15139.511372 -21491.561445    -76.670203                    
V 10  23232.353382 -13216.834819   4367.727567     -0.011548                    
P 11  16220.365393  -3539.736526  20310.632889   -372.435357                    
V 11   8476.744153  25749.250535  -1957.691054     -0.036898                    
P 12 -23826.411741  10711.461758   4082.109711    128.442838                    
V 12   3409.620533  -4560.873767  31841.213163      0.020765                    
P 13  10290.111829 -10875.078170 -22090.916632    128.475871                    
V 13  22894.363180  15466.882911   2952.012953     -0.035912                    
P 14   9394.338523  18970.926562  16325.990922    221.089030                    
V 14 -17954.070099  -9537.750548  21531.310641      0.000044                    
P 15 -23405.793443  -1311.509166  12697.410634   -115.317467                    
V 15 -13272.468919  -9506.319732 -25133.303571     -0.014448                    
P 16  19031.215624   3374.297700 -18385.325194   -252.533533                    
V 16 -19740.067718  12093.497058 -17897.282146      0.001077                    
P 17 -10260.674290 -18850.518344  16013.633195     29.677122                    
V 17  17949.791977   8596.978370  21689.477376     -0.039979                    
P 18 -10025.686964  19539.088561  15085.519212    248.929044                    
V 18 -17387.550216   7454.628429 -22147.617829      0.018437                    
P 19  23622.951030   6700.730146  10562.704292   -364.934077                    
V 19  10021.897829   9138.117953 -27572.728772     -0.031386                    
P 20  22237.479203 -14382.481385   1265.175710     93.037298                    
V 20    734.434233   4234.366737  31016.950553      0.018777                    
P 21  -3361.267093  25311.419517  -5651.589425   -291.984439                    
V 21  -4416.558019  -7884.667617 -30293.701867     -0.021621                    
P 22   1233.877980  17227.062237  20336.773529    164.455976                    
V 22 -22393.329479  12409.619663  -9383.067284      0.011696                    
P 23  18445.020278  -4839.398563 -18584.664464     95.103564                    
V 23  20047.706759  12533.596216  16190.327791     -0.036463                    
P 24 -14529.799005   6941.742648  21105.668097     -4.537475                    
V 24  -1824.219167 -26783.120265   7588.678024     -0.007006                    
P 25 -19025.545402  17289.045235  -6504.351609     87.497764                    
V 25  -8228.572388   2358.770533  30640.524850      0.037546                    
P 26 -22816.840994 -13780.626646   1528.639783    -26.588687                    
V 26  -1169.362712  -3138.828197 -31862.514078      0.150496                    
P 28   3645.373571 -17398.808117  20257.314026    250.009404                    
V 28  21847.304460 -11004.234649 -13957.667297      0.032581                    
P 29 -10137.239533  11419.782661 -21672.855787    426.477285                    
V 29 -23580.522086 -14424.655944   3465.656061      0.035415                    
P 31   7693.891030  22597.947926 -11162.791236    310.684578                    
V 31  -2004.813468  14529.104273  27876.666357      0.014779                    
P 32  24308.942390  -5576.090640   8475.230895   -550.373646                    
V 32  -8075.164058   7815.251389  29281.093677     -0.024312                    
EOF
